[
  {
    "name": "KUIPER-00250",
    "noradId": "67155",
    "line1": "1 67155U 25301Y   26187.40483139  .00002978  00000+0  41960-3 0  9999",
    "line2": "2 67155  51.8982 265.6384 0000643  94.1491 265.9545 14.79915411 31275"
  },
  {
    "name": "KUIPER-00251",
    "noradId": "67156",
    "line1": "1 67156U 25301Z   26187.48585360  .00002686  00000+0  38109-3 0  9994",
    "line2": "2 67156  51.8995 252.8478 0000327  56.7854 303.3140 14.79939136 31614"
  },
  {
    "name": "KUIPER-00252",
    "noradId": "67157",
    "line1": "1 67157U 25301AA  26187.48316179  .00000440  00000+0  86737-4 0  9992",
    "line2": "2 67157  51.8987 255.3110 0000558  94.9564 265.1462 14.79932053 31393"
  },
  {
    "name": "KUIPER-00261",
    "noradId": "67158",
    "line1": "1 67158U 25301AB  26187.50614703 -.00000811  00000+0 -77434-4 0  9998",
    "line2": "2 67158  51.9021 265.2624 0000584 115.6180 244.4842 14.79920288 31252"
  },
  {
    "name": "KUIPER-00265",
    "noradId": "67159",
    "line1": "1 67159U 25301AC  26187.45620562 -.00001522  00000+0 -17066-3 0  9997",
    "line2": "2 67159  51.9018 280.4572 0000651 104.2735 255.8300 14.79924928 31075"
  },
  {
    "name": "KUIPER-00159",
    "noradId": "67764",
    "line1": "1 67764U 26030A   26187.78876411 -.00016416  00000+0 -44488-3 0  9997",
    "line2": "2 67764  51.8854   3.4434 0006522 105.5054 254.6653 15.36417521 23412"
  },
  {
    "name": "KUIPER-00160",
    "noradId": "67765",
    "line1": "1 67765U 26030B   26187.72734288  .00020930  00000+0  56930-3 0  9996",
    "line2": "2 67765  51.8823   3.7320 0005951 116.0148 244.1452 15.37479235 23403"
  },
  {
    "name": "KUIPER-00177",
    "noradId": "67766",
    "line1": "1 67766U 26030C   26186.99789311  .00004908  00000+0  67220-3 0  9993",
    "line2": "2 67766  51.9011  49.9646 0000827  99.1519 260.9537 14.79940136 22695"
  },
  {
    "name": "KUIPER-00178",
    "noradId": "67767",
    "line1": "1 67767U 26030D   26187.84202282 -.00002965  00000+0 -36003-3 0  9994",
    "line2": "2 67767  51.8997  46.2131 0001008 106.0476 254.0598 14.79934959 22821"
  },
  {
    "name": "KUIPER-00180",
    "noradId": "67768",
    "line1": "1 67768U 26030E   26187.84741535 -.00001496  00000+0 -16724-3 0  9990",
    "line2": "2 67768  51.8986  41.1953 0001000  99.9290 260.1785 14.79926004 22897"
  },
  {
    "name": "KUIPER-00197",
    "noradId": "67769",
    "line1": "1 67769U 26030F   26187.73393127  .00000377  00000+0  78455-4 0  9994",
    "line2": "2 67769  51.8990  21.7101 0000647 143.8788 216.2218 14.79917234 23157"
  },
  {
    "name": "KUIPER-00198",
    "noradId": "67770",
    "line1": "1 67770U 26030G   26186.87632205  .00004841  00000+0  66340-3 0  9992",
    "line2": "2 67770  51.8977  37.9861 0000639 103.9352 256.1681 14.79943588 22855"
  },
  {
    "name": "KUIPER-00199",
    "noradId": "67771",
    "line1": "1 67771U 26030H   26187.68384843  .00020060  00000+0  55613-3 0  9997",
    "line2": "2 67771  51.8809   5.6511 0010077 123.0953 237.1002 15.36886744 23379"
  },
  {
    "name": "KUIPER-00200",
    "noradId": "67772",
    "line1": "1 67772U 26030J   26186.01268693  .00066248  00000+0  91554-2 0  9999",
    "line2": "2 67772  51.8971  26.8282 0000241 209.9060 150.1887 14.77449510 22931"
  },
  {
    "name": "KUIPER-00203",
    "noradId": "67773",
    "line1": "1 67773U 26030K   26186.92498684  .00005059  00000+0  69197-3 0  9997",
    "line2": "2 67773  51.9061  55.3270 0000742 108.6688 251.4355 14.79943956 22619"
  },
  {
    "name": "KUIPER-00205",
    "noradId": "67774",
    "line1": "1 67774U 26030L   26187.70563294  .00007559  00000+0  10189-2 0  9998",
    "line2": "2 67774  51.8993  16.8117 0001310  97.5453 262.5659 14.79953602 23220"
  },
  {
    "name": "KUIPER-00208",
    "noradId": "67775",
    "line1": "1 67775U 26030M   26187.01004119  .00002736  00000+0  41955-3 0  9997",
    "line2": "2 67775  51.8974  47.1505 0008236  93.5402 266.6501 14.76507195 22737"
  },
  {
    "name": "KUIPER-00209",
    "noradId": "67776",
    "line1": "1 67776U 26030N   26187.00330528  .00002274  00000+0  32715-3 0  9994",
    "line2": "2 67776  51.8985  45.0184 0000837 107.5605 252.5448 14.79933758 22768"
  },
  {
    "name": "KUIPER-00213",
    "noradId": "67777",
    "line1": "1 67777U 26030P   26187.03977047  .00004854  00000+0  66509-3 0  9995",
    "line2": "2 67777  51.8960  42.3415 0000716 108.4100 251.6940 14.79942949 22809"
  },
  {
    "name": "KUIPER-00214",
    "noradId": "67778",
    "line1": "1 67778U 26030Q   26187.00869176  .00004745  00000+0  65072-3 0  9999",
    "line2": "2 67778  51.8999  39.9854 0000747 106.6709 253.4335 14.79947067 22837"
  },
  {
    "name": "KUIPER-00215",
    "noradId": "67779",
    "line1": "1 67779U 26030R   26187.85022262  .00001513  00000+0  24659-3 0  9996",
    "line2": "2 67779  51.8994  23.4633 0000562  73.6452 286.4571 14.76348759 23142"
  },
  {
    "name": "KUIPER-00218",
    "noradId": "67780",
    "line1": "1 67780U 26030S   26186.87092613  .00004906  00000+0  67197-3 0  9999",
    "line2": "2 67780  51.8976  43.0049 0000705  99.1288 260.9754 14.79942876 22784"
  },
  {
    "name": "KUIPER-00220",
    "noradId": "67781",
    "line1": "1 67781U 26030T   26187.75003471 -.00062412  00000+0 -80306-2 0  9996",
    "line2": "2 67781  51.8963  14.1646 0000384 195.0523  24.4634 14.80979192  5441"
  },
  {
    "name": "KUIPER-00222",
    "noradId": "67782",
    "line1": "1 67782U 26030U   26186.97762959  .00004937  00000+0  67588-3 0  9997",
    "line2": "2 67782  51.8984  37.6878 0000715 104.1157 255.9884 14.79946391 22860"
  },
  {
    "name": "KUIPER-00223",
    "noradId": "67783",
    "line1": "1 67783U 26030V   26186.95194014  .00002453  00000+0  35061-3 0  9999",
    "line2": "2 67783  51.8995  30.0929 0000901 111.0910 249.0149 14.79931979 22974"
  },
  {
    "name": "KUIPER-00225",
    "noradId": "67784",
    "line1": "1 67784U 26030W   26187.01413971  .00004918  00000+0  67381-3 0  9992",
    "line2": "2 67784  51.8989  34.9839 0000714  88.1936 271.9108 14.79924120 22907"
  },
  {
    "name": "KUIPER-00226",
    "noradId": "67785",
    "line1": "1 67785U 26030X   26186.92712361  .00000040  00000+0  30863-4 0  9995",
    "line2": "2 67785  51.8986  21.3410 0016743 116.0040 244.2652 14.87300843 23093"
  },
  {
    "name": "KUIPER-00259",
    "noradId": "67786",
    "line1": "1 67786U 26030Y   26187.85820596  .00000918  00000+0  14937-3 0  9996",
    "line2": "2 67786  51.8985  31.1529 0000785  99.3389 260.7662 14.79934426 23030"
  },
  {
    "name": "KUIPER-00260",
    "noradId": "67787",
    "line1": "1 67787U 26030Z   26187.86091779  .00000275  00000+0  65105-4 0  9991",
    "line2": "2 67787  51.9012  28.7354 0000613 106.0740 254.0290 14.79924642 22972"
  },
  {
    "name": "KUIPER-00262",
    "noradId": "67788",
    "line1": "1 67788U 26030AA  26187.01678264  .00004885  00000+0  66860-3 0  9998",
    "line2": "2 67788  51.9012  32.3868 0001080 149.5237 210.5788 14.79978980 22946"
  },
  {
    "name": "KUIPER-00266",
    "noradId": "67789",
    "line1": "1 67789U 26030AB  26187.86359852 -.00001940  00000+0 -22550-3 0  9990",
    "line2": "2 67789  51.8993  26.1381 0002537 149.1945 210.9166 14.79925313 23100"
  },
  {
    "name": "KUIPER-00268",
    "noradId": "67790",
    "line1": "1 67790U 26030AC  26187.69740811  .00005694  00000+0  77415-3 0  9990",
    "line2": "2 67790  51.9038  24.3827 0001384 133.2202 226.8876 14.79995825 23117"
  },
  {
    "name": "KUIPER-00270",
    "noradId": "67791",
    "line1": "1 67791U 26030AD  26187.75003471  .00021119  00000+0  27980-2 0  9993",
    "line2": "2 67791  51.8993  14.1418 0000669 107.4695 295.7390 14.79820221  4633"
  },
  {
    "name": "KUIPER-00274",
    "noradId": "67792",
    "line1": "1 67792U 26030AE  26186.97492484  .00002424  00000+0  34681-3 0  9998",
    "line2": "2 67792  51.9014  40.0618 0000793 141.7419 218.3600 14.79936928 22831"
  },
  {
    "name": "KUIPER-00275",
    "noradId": "67793",
    "line1": "1 67793U 26030AF  26187.73931653  .00002843  00000+0  40188-3 0  9994",
    "line2": "2 67793  51.9002  16.6917 0000730 112.3946 247.7094 14.79919420 23225"
  },
  {
    "name": "KUIPER-00276",
    "noradId": "67794",
    "line1": "1 67794U 26030AG  26187.70016823  .00000928  00000+0  15083-3 0  9993",
    "line2": "2 67794  51.8975  21.8489 0002754 113.7658 246.3593 14.79930426 23159"
  },
  {
    "name": "KUIPER-00279",
    "noradId": "67795",
    "line1": "1 67795U 26030AH  26187.75003471 -.00030478  00000+0 -39853-2 0  9999",
    "line2": "2 67795  51.9030  11.6528 0001308 138.7791 249.7362 14.79949980  5294"
  },
  {
    "name": "KUIPER-00131",
    "noradId": "68573",
    "line1": "1 68573U 26072A   26187.20061896  .00001528  00000+0  22940-3 0  9997",
    "line2": "2 68573  51.8998 111.5725 0000744  89.1243 270.9805 14.79935454 13933"
  },
  {
    "name": "KUIPER-00189",
    "noradId": "68574",
    "line1": "1 68574U 26072B   26187.16414944  .00001545  00000+0  23163-3 0  9996",
    "line2": "2 68574  51.8966 114.2188 0000833  94.0023 266.1035 14.79925730 13895"
  },
  {
    "name": "KUIPER-00192",
    "noradId": "68575",
    "line1": "1 68575U 26072C   26187.00072420  .00000094  00000+0  41339-4 0  9993",
    "line2": "2 68575  51.8986 109.9529 0000749  93.9823 266.1225 14.79932244 13945"
  },
  {
    "name": "KUIPER-00193",
    "noradId": "68576",
    "line1": "1 68576U 26072D   26187.12729494  .00002416  00000+0  37319-3 0  9999",
    "line2": "2 68576  51.9037  99.2083 0000437 344.3964  15.6983 14.76598436 14108"
  },
  {
    "name": "KUIPER-00194",
    "noradId": "68577",
    "line1": "1 68577U 26072E   26187.17210581 -.00010171  00000+0 -13078-2 0  9991",
    "line2": "2 68577  51.9016 106.7056 0000905 135.0742 225.0294 14.79913110 14003"
  },
  {
    "name": "KUIPER-00229",
    "noradId": "68578",
    "line1": "1 68578U 26072F   26187.16691679  .00004828  00000+0  66102-3 0  9999",
    "line2": "2 68578  51.9004 111.7180 0000729  89.2193 270.8853 14.79987582 13933"
  }
]